CCSDS_OMM_VERS = 2.0
CREATION_DATE  = 
ORIGINATOR     = 

OBJECT_NAME    = COSMOS 2550
OBJECT_ID      = 2021-056A
CENTER_NAME    = EARTH
REF_FRAME      = TEME
TIME_SYSTEM    = UTC
MEAN_ELEMENT_THEORY = SGP/SGP4

EPOCH          = 2025-10-27T04:01:42.095712
MEAN_MOTION    = 15.33829589
ECCENTRICITY   = .0008314
INCLINATION    = 67.1424
RA_OF_ASC_NODE = 84.8603
ARG_OF_PERICENTER = 270.0635
MEAN_ANOMALY   = 89.9567

EPHEMERIS_TYPE = 0
CLASSIFICATION_TYPE = U
NORAD_CAT_ID   = 48865
ELEMENT_SET_NO = 999
REV_AT_EPOCH   = 24298
BSTAR          = .26829E-4
MEAN_MOTION_DOT = .691E-5
MEAN_MOTION_DDOT = 0

CCSDS_OMM_VERS = 2.0
CREATION_DATE  = 
ORIGINATOR     = 

OBJECT_NAME    = CZ-2C R/B
OBJECT_ID      = 2022-058K
CENTER_NAME    = EARTH
REF_FRAME      = TEME
TIME_SYSTEM    = UTC
MEAN_ELEMENT_THEORY = SGP/SGP4

EPOCH          = 2025-10-27T04:01:05.541600
MEAN_MOTION    = 15.45269053
ECCENTRICITY   = .0051088
INCLINATION    = 50.1913
RA_OF_ASC_NODE = 280.4827
ARG_OF_PERICENTER = 4.1664
MEAN_ANOMALY   = 355.9718

EPHEMERIS_TYPE = 0
CLASSIFICATION_TYPE = U
NORAD_CAT_ID   = 52794
ELEMENT_SET_NO = 999
REV_AT_EPOCH   = 18942
BSTAR          = .54238E-3
MEAN_MOTION_DOT = .27263E-3
MEAN_MOTION_DDOT = 0

CCSDS_OMM_VERS = 2.0
CREATION_DATE  = 
ORIGINATOR     = 

OBJECT_NAME    = GSLV R/B
OBJECT_ID      = 2022-138AN
CENTER_NAME    = EARTH
REF_FRAME      = TEME
TIME_SYSTEM    = UTC
MEAN_ELEMENT_THEORY = SGP/SGP4

EPOCH          = 2025-10-27T03:57:11.021760
MEAN_MOTION    = 14.95739908
ECCENTRICITY   = .0019053
INCLINATION    = 87.3853
RA_OF_ASC_NODE = 211.0573
ARG_OF_PERICENTER = 278.9721
MEAN_ANOMALY   = 80.9353

EPHEMERIS_TYPE = 0
CLASSIFICATION_TYPE = U
NORAD_CAT_ID   = 54149
ELEMENT_SET_NO = 999
REV_AT_EPOCH   = 16396
BSTAR          = .42007E-3
MEAN_MOTION_DOT = .4722E-4
MEAN_MOTION_DDOT = 0

CCSDS_OMM_VERS = 2.0
CREATION_DATE  = 
ORIGINATOR     = 

OBJECT_NAME    = XRISM
OBJECT_ID      = 2023-137A
CENTER_NAME    = EARTH
REF_FRAME      = TEME
TIME_SYSTEM    = UTC
MEAN_ELEMENT_THEORY = SGP/SGP4

EPOCH          = 2025-10-26T16:51:40.042656
MEAN_MOTION    = 15.09599781
ECCENTRICITY   = .00082103
INCLINATION    = 31.0027
RA_OF_ASC_NODE = 69.0686
ARG_OF_PERICENTER = 131.1073
MEAN_ANOMALY   = 229.0274

EPHEMERIS_TYPE = 0
CLASSIFICATION_TYPE = U
NORAD_CAT_ID   = 57800
ELEMENT_SET_NO = 999
REV_AT_EPOCH   = 11751
BSTAR          = .39167869E-3
MEAN_MOTION_DOT = .6549E-4
MEAN_MOTION_DDOT = 0

CCSDS_OMM_VERS = 2.0
CREATION_DATE  = 
ORIGINATOR     = 

OBJECT_NAME    = ACS3
OBJECT_ID      = 2024-077B
CENTER_NAME    = EARTH
REF_FRAME      = TEME
TIME_SYSTEM    = UTC
MEAN_ELEMENT_THEORY = SGP/SGP4

EPOCH          = 2025-10-27T04:42:18.014976
MEAN_MOTION    = 13.82690747
ECCENTRICITY   = .0028103
INCLINATION    = 97.3472
RA_OF_ASC_NODE = 266.0910
ARG_OF_PERICENTER = 28.4604
MEAN_ANOMALY   = 331.8084

EPHEMERIS_TYPE = 0
CLASSIFICATION_TYPE = U
NORAD_CAT_ID   = 59588
ELEMENT_SET_NO = 999
REV_AT_EPOCH   = 7570
BSTAR          = .10323E-1
MEAN_MOTION_DOT = .11239E-3
MEAN_MOTION_DDOT = 0

