COSMOS 2550             
1 48865U 21056A   25300.16784833  .00000691  00000+0  26829-4 0  9991
2 48865  67.1424  84.8603 0008314 270.0635  89.9567 15.33829589242987
CZ-2C R/B               
1 52794U 22058K   25300.16742525  .00027263  00000+0  54238-3 0  9990
2 52794  50.1913 280.4827 0051088   4.1664 355.9718 15.45269053189424
GSLV R/B                
1 54149U 22138AN  25300.16471090  .00004722  00000+0  42007-3 0  9997
2 54149  87.3853 211.0573 0019053 278.9721  80.9353 14.95739908163960
XRISM                   
1 57800U 23137A   25299.70254679  .00006549  00000+0  39168-3 0  9996
2 57800  31.0027  69.0686 0008210 131.1073 229.0274 15.09599781117512
ACS3                    
1 59588U 24077B   25300.19604184  .00011239  00000+0  10323-1 0  9993
2 59588  97.3472 266.0910 0028103  28.4604 331.8084 13.82690747 75704
